FLOCK 4BE-7             
1 60481U 24149P   26115.75471220  .00021935  00000+0  58533-3 0  9998
2 60481  97.3760 198.4655 0004294 101.1711 259.0017 15.38135187 94180
FLOCK 4BE-26            
1 60484U 24149S   26115.76573382  .00137201  00000+0  20126-2 0  9994
2 60484  97.3686 199.6671 0003137 144.2932 215.8533 15.55047170 94286
FLOCK 4BE-36            
1 60486U 24149U   26115.74432885  .00017321  00000+0  42095-3 0  9996
2 60486  97.3742 199.6130 0005165 103.0188 257.1635 15.41041704 94273
FLOCK 4BE-25            
1 60487U 24149V   26115.71749404  .00013713  00000+0  37543-3 0  9995
2 60487  97.3798 198.5684 0003765 100.6877 259.4792 15.37443684 94175
FLOCK 4BE-31            
1 60488U 24149W   26115.75059478  .00020587  00000+0  48309-3 0  9994
2 60488  97.3798 200.3424 0004053 106.1292 254.0402 15.42071354 94292
FLOCK 4BE-20            
1 60489U 24149X   26115.78454581  .00014679  00000+0  41183-3 0  9990
2 60489  97.3697 197.6477 0005311 101.4375 258.7466 15.36658475 94160
FLOCK 4BE-23            
1 60490U 24149Y   26115.76229080  .00013701  00000+0  38908-3 0  9990
2 60490  97.3780 197.9725 0005141 107.3195 252.8611 15.36296903 94149
FLOCK 4BE-15            
1 60491U 24149Z   26115.74348990  .00094757  00000+0  17548-2 0  9997
2 60491  97.3709 199.6050 0005661 174.2722 185.8595 15.48651367 94280
FLOCK 4BE-17            
1 60492U 24149AA  26115.74983752  .00015753  00000+0  42007-3 0  9997
2 60492  97.3776 198.7681 0004471  99.9520 260.2230 15.38224718 94191
FLOCK 4BE-22            
1 60494U 24149AC  26115.77738813  .00017775  00000+0  45373-3 0  9993
2 60494  97.3732 198.9083 0005126 105.2766 254.9046 15.39539921 94230
FLOCK 4BE-34            
1 60495U 24149AD  26115.79558727  .00015291  00000+0  38981-3 0  9998
2 60495  97.3780 199.7135 0005396 112.0201 248.1619 15.39611827 94260
FLOCK 4BE-32            
1 60497U 24149AF  26115.79336780  .00016775  00000+0  41710-3 0  9995
2 60497  97.3719 199.2283 0005304 109.9074 250.2744 15.40353946 94265
FLOCK 4BE-30            
1 60499U 24149AH  26115.79142154  .00083293  00000+0  17124-2 0  9997
2 60499  97.3789 200.0215 0003669 169.2269 190.9059 15.45670987 93650
FLOCK 4BE-11            
1 60501U 24149AK  26115.68681959  .00017668  00000+0  42707-3 0  9999
2 60501  97.3700 199.2984 0005357 109.8160 250.3665 15.41199910 94265
FLOCK 4BE-24            
1 60505U 24149AP  26115.67277345  .00019424  00000+0  47091-3 0  9995
2 60505  97.3717 199.5299 0005461 118.1449 242.0350 15.41090252 94277
TANAGER-1               
1 60507U 24149AR  26115.81610594  .00014624  00000+0  31950-3 0  9994
2 60507  97.3468 209.7998 0007597 130.0750 230.1165 15.44257878 94951
