[{"OBJECT_NAME":"FLOCK 4BE-7","OBJECT_ID":"2024-149P","EPOCH":"2026-04-25T18:06:47.134080","MEAN_MOTION":15.38135187,"ECCENTRICITY":0.0004294,"INCLINATION":97.376,"RA_OF_ASC_NODE":198.4655,"ARG_OF_PERICENTER":101.1711,"MEAN_ANOMALY":259.0017,"EPHEMERIS_TYPE":0,"CLASSIFICATION_TYPE":"U","NORAD_CAT_ID":60481,"ELEMENT_SET_NO":999,"REV_AT_EPOCH":9418,"BSTAR":0.00058533,"MEAN_MOTION_DOT":0.00021935,"MEAN_MOTION_DDOT":0},{"OBJECT_NAME":"FLOCK 4BE-26","OBJECT_ID":"2024-149S","EPOCH":"2026-04-25T18:22:39.402048","MEAN_MOTION":15.5504717,"ECCENTRICITY":0.0003137,"INCLINATION":97.3686,"RA_OF_ASC_NODE":199.6671,"ARG_OF_PERICENTER":144.2932,"MEAN_ANOMALY":215.8533,"EPHEMERIS_TYPE":0,"CLASSIFICATION_TYPE":"U","NORAD_CAT_ID":60484,"ELEMENT_SET_NO":999,"REV_AT_EPOCH":9428,"BSTAR":0.0020126,"MEAN_MOTION_DOT":0.00137201,"MEAN_MOTION_DDOT":0},{"OBJECT_NAME":"FLOCK 4BE-36","OBJECT_ID":"2024-149U","EPOCH":"2026-04-25T17:51:50.012640","MEAN_MOTION":15.41041704,"ECCENTRICITY":0.0005165,"INCLINATION":97.3742,"RA_OF_ASC_NODE":199.613,"ARG_OF_PERICENTER":103.0188,"MEAN_ANOMALY":257.1635,"EPHEMERIS_TYPE":0,"CLASSIFICATION_TYPE":"U","NORAD_CAT_ID":60486,"ELEMENT_SET_NO":999,"REV_AT_EPOCH":9427,"BSTAR":0.00042095,"MEAN_MOTION_DOT":0.00017321,"MEAN_MOTION_DDOT":0},{"OBJECT_NAME":"FLOCK 4BE-25","OBJECT_ID":"2024-149V","EPOCH":"2026-04-25T17:13:11.485056","MEAN_MOTION":15.37443684,"ECCENTRICITY":0.0003765,"INCLINATION":97.3798,"RA_OF_ASC_NODE":198.5684,"ARG_OF_PERICENTER":100.6877,"MEAN_ANOMALY":259.4792,"EPHEMERIS_TYPE":0,"CLASSIFICATION_TYPE":"U","NORAD_CAT_ID":60487,"ELEMENT_SET_NO":999,"REV_AT_EPOCH":9417,"BSTAR":0.00037543,"MEAN_MOTION_DOT":0.00013713,"MEAN_MOTION_DDOT":0},{"OBJECT_NAME":"FLOCK 4BE-31","OBJECT_ID":"2024-149W","EPOCH":"2026-04-25T18:00:51.388992","MEAN_MOTION":15.42071354,"ECCENTRICITY":0.0004053,"INCLINATION":97.3798,"RA_OF_ASC_NODE":200.3424,"ARG_OF_PERICENTER":106.1292,"MEAN_ANOMALY":254.0402,"EPHEMERIS_TYPE":0,"CLASSIFICATION_TYPE":"U","NORAD_CAT_ID":60488,"ELEMENT_SET_NO":999,"REV_AT_EPOCH":9429,"BSTAR":0.00048309,"MEAN_MOTION_DOT":0.00020587,"MEAN_MOTION_DDOT":0},{"OBJECT_NAME":"FLOCK 4BE-20","OBJECT_ID":"2024-149X","EPOCH":"2026-04-25T18:49:44.757984","MEAN_MOTION":15.36658475,"ECCENTRICITY":0.0005311,"INCLINATION":97.3697,"RA_OF_ASC_NODE":197.6477,"ARG_OF_PERICENTER":101.4375,"MEAN_ANOMALY":258.7466,"EPHEMERIS_TYPE":0,"CLASSIFICATION_TYPE":"U","NORAD_CAT_ID":60489,"ELEMENT_SET_NO":999,"REV_AT_EPOCH":9416,"BSTAR":0.00041183,"MEAN_MOTION_DOT":0.00014679,"MEAN_MOTION_DDOT":0},{"OBJECT_NAME":"FLOCK 4BE-23","OBJECT_ID":"2024-149Y","EPOCH":"2026-04-25T18:17:41.925120","MEAN_MOTION":15.36296903,"ECCENTRICITY":0.0005141,"INCLINATION":97.378,"RA_OF_ASC_NODE":197.9725,"ARG_OF_PERICENTER":107.3195,"MEAN_ANOMALY":252.8611,"EPHEMERIS_TYPE":0,"CLASSIFICATION_TYPE":"U","NORAD_CAT_ID":60490,"ELEMENT_SET_NO":999,"REV_AT_EPOCH":9414,"BSTAR":0.00038908,"MEAN_MOTION_DOT":0.00013701,"MEAN_MOTION_DDOT":0},{"OBJECT_NAME":"FLOCK 4BE-15","OBJECT_ID":"2024-149Z","EPOCH":"2026-04-25T17:50:37.527360","MEAN_MOTION":15.48651367,"ECCENTRICITY":0.0005661,"INCLINATION":97.3709,"RA_OF_ASC_NODE":199.605,"ARG_OF_PERICENTER":174.2722,"MEAN_ANOMALY":185.8595,"EPHEMERIS_TYPE":0,"CLASSIFICATION_TYPE":"U","NORAD_CAT_ID":60491,"ELEMENT_SET_NO":999,"REV_AT_EPOCH":9428,"BSTAR":0.0017548,"MEAN_MOTION_DOT":0.00094757,"MEAN_MOTION_DDOT":0},{"OBJECT_NAME":"FLOCK 4BE-17","OBJECT_ID":"2024-149AA","EPOCH":"2026-04-25T17:59:45.961728","MEAN_MOTION":15.38224718,"ECCENTRICITY":0.0004471,"INCLINATION":97.3776,"RA_OF_ASC_NODE":198.7681,"ARG_OF_PERICENTER":99.952,"MEAN_ANOMALY":260.223,"EPHEMERIS_TYPE":0,"CLASSIFICATION_TYPE":"U","NORAD_CAT_ID":60492,"ELEMENT_SET_NO":999,"REV_AT_EPOCH":9419,"BSTAR":0.00042007,"MEAN_MOTION_DOT":0.00015753,"MEAN_MOTION_DDOT":0},{"OBJECT_NAME":"FLOCK 4BE-22","OBJECT_ID":"2024-149AC","EPOCH":"2026-04-25T18:39:26.334432","MEAN_MOTION":15.39539921,"ECCENTRICITY":0.0005126,"INCLINATION":97.3732,"RA_OF_ASC_NODE":198.9083,"ARG_OF_PERICENTER":105.2766,"MEAN_ANOMALY":254.9046,"EPHEMERIS_TYPE":0,"CLASSIFICATION_TYPE":"U","NORAD_CAT_ID":60494,"ELEMENT_SET_NO":999,"REV_AT_EPOCH":9423,"BSTAR":0.00045373,"MEAN_MOTION_DOT":0.00017775,"MEAN_MOTION_DDOT":0},{"OBJECT_NAME":"FLOCK 4BE-34","OBJECT_ID":"2024-149AD","EPOCH":"2026-04-25T19:05:38.740128","MEAN_MOTION":15.39611827,"ECCENTRICITY":0.0005396,"INCLINATION":97.378,"RA_OF_ASC_NODE":199.7135,"ARG_OF_PERICENTER":112.0201,"MEAN_ANOMALY":248.1619,"EPHEMERIS_TYPE":0,"CLASSIFICATION_TYPE":"U","NORAD_CAT_ID":60495,"ELEMENT_SET_NO":999,"REV_AT_EPOCH":9426,"BSTAR":0.00038981,"MEAN_MOTION_DOT":0.00015291,"MEAN_MOTION_DDOT":0},{"OBJECT_NAME":"FLOCK 4BE-32","OBJECT_ID":"2024-149AF","EPOCH":"2026-04-25T19:02:26.977920","MEAN_MOTION":15.40353946,"ECCENTRICITY":0.0005304,"INCLINATION":97.3719,"RA_OF_ASC_NODE":199.2283,"ARG_OF_PERICENTER":109.9074,"MEAN_ANOMALY":250.2744,"EPHEMERIS_TYPE":0,"CLASSIFICATION_TYPE":"U","NORAD_CAT_ID":60497,"ELEMENT_SET_NO":999,"REV_AT_EPOCH":9426,"BSTAR":0.0004171,"MEAN_MOTION_DOT":0.00016775,"MEAN_MOTION_DDOT":0},{"OBJECT_NAME":"FLOCK 4BE-30","OBJECT_ID":"2024-149AH","EPOCH":"2026-04-25T18:59:38.821056","MEAN_MOTION":15.45670987,"ECCENTRICITY":0.0003669,"INCLINATION":97.3789,"RA_OF_ASC_NODE":200.0215,"ARG_OF_PERICENTER":169.2269,"MEAN_ANOMALY":190.9059,"EPHEMERIS_TYPE":0,"CLASSIFICATION_TYPE":"U","NORAD_CAT_ID":60499,"ELEMENT_SET_NO":999,"REV_AT_EPOCH":9365,"BSTAR":0.0017124,"MEAN_MOTION_DOT":0.00083293,"MEAN_MOTION_DDOT":0},{"OBJECT_NAME":"FLOCK 4BE-11","OBJECT_ID":"2024-149AK","EPOCH":"2026-04-25T16:29:01.212576","MEAN_MOTION":15.4119991,"ECCENTRICITY":0.0005357,"INCLINATION":97.37,"RA_OF_ASC_NODE":199.2984,"ARG_OF_PERICENTER":109.816,"MEAN_ANOMALY":250.3665,"EPHEMERIS_TYPE":0,"CLASSIFICATION_TYPE":"U","NORAD_CAT_ID":60501,"ELEMENT_SET_NO":999,"REV_AT_EPOCH":9426,"BSTAR":0.00042707,"MEAN_MOTION_DOT":0.00017668,"MEAN_MOTION_DDOT":0},{"OBJECT_NAME":"FLOCK 4BE-24","OBJECT_ID":"2024-149AP","EPOCH":"2026-04-25T16:08:47.626080","MEAN_MOTION":15.41090252,"ECCENTRICITY":0.0005461,"INCLINATION":97.3717,"RA_OF_ASC_NODE":199.5299,"ARG_OF_PERICENTER":118.1449,"MEAN_ANOMALY":242.035,"EPHEMERIS_TYPE":0,"CLASSIFICATION_TYPE":"U","NORAD_CAT_ID":60505,"ELEMENT_SET_NO":999,"REV_AT_EPOCH":9427,"BSTAR":0.00047091,"MEAN_MOTION_DOT":0.00019424,"MEAN_MOTION_DDOT":0},{"OBJECT_NAME":"TANAGER-1","OBJECT_ID":"2024-149AR","EPOCH":"2026-04-25T19:35:11.553216","MEAN_MOTION":15.44257878,"ECCENTRICITY":0.0007597,"INCLINATION":97.3468,"RA_OF_ASC_NODE":209.7998,"ARG_OF_PERICENTER":130.075,"MEAN_ANOMALY":230.1165,"EPHEMERIS_TYPE":0,"CLASSIFICATION_TYPE":"U","NORAD_CAT_ID":60507,"ELEMENT_SET_NO":999,"REV_AT_EPOCH":9495,"BSTAR":0.0003195,"MEAN_MOTION_DOT":0.00014624,"MEAN_MOTION_DDOT":0}]
